[
  "TORO                    \r\n1 60530U 24149BQ  26194.18357109  .00000481  00000+0  47302-4 0  9992\r\n2 60530  97.6781 268.3664 0001199  94.0686 266.0672 14.96514380103848\r\n",
  "TORO3                   \r\n1 68481U 26067BT  26194.45350238  .00000241  00000+0  29198-4 0  9999\r\n2 68481  97.7686 152.4439 0001923 195.9075 164.2084 14.92165663 15645\r\n",
  "SATORO-T3               \r\n1 64589U 25135BP  26194.27649621  .00001220  00000+0  11849-3 0  9997\r\n2 64589  97.7736 308.5410 0003652 233.8122 126.2761 14.94432854 57800\r\n",
  "GEMINI-POLLUX           \r\n1 69000U 26100W   26193.94354653  .00001150  00000+0  11797-3 0  9998\r\n2 69000  97.7294  90.9386 0002022 111.9228 248.2206 14.92319373 10546\r\n",
  "FORMOSAT-2 (ROCSAT 2)   \r\n1 28254U 04018A   26193.87799646 -.00000262  00000+0 -14566-3 0  9997\r\n2 28254  98.8459 160.5718 0000729 216.6709 172.5348 14.01253000132353\r\n",
  "FORMOSAT-3 FM6          \r\n1 29047U 06011A   26194.16947901  .00000200  00000+0  89983-4 0  9991\r\n2 29047  71.9764 258.0874 0048772 194.9769 164.9928 14.31417772 58127\r\n",
  "FORMOSAT-3 FM1          \r\n1 29048U 06011B   26193.95381080  .00000171  00000+0  79532-4 0  9994\r\n2 29048  71.9649 166.9179 0041427 158.2827 202.0079 14.31406765 60464\r\n",
  "FORMOSAT-3 FM5          \r\n1 29049U 06011C   26193.86400789  .00000227  00000+0  10062-3 0  9997\r\n2 29049  72.0194 351.3765 0033441 164.9515 195.2627 14.31423513 56342\r\n",
  "FORMOSAT-3 FM3          \r\n1 29050U 06011D   26194.16556713  .00000573  00000+0  10989-3 0  9994\r\n2 29050  72.0124 256.0233 0044832 239.0441 120.6307 14.67013133 80184\r\n",
  "FORMOSAT-3 FM4          \r\n1 29051U 06011E   26194.31094304  .00000142  00000+0  67459-4 0  9992\r\n2 29051  72.0025 247.9570 0064700  43.9913 316.6348 14.31556797 59008\r\n",
  "FORMOSAT-3 FM2          \r\n1 29052U 06011F   26193.81934026  .00000209  00000+0  93023-4 0  9991\r\n2 29052  72.0337 329.8584 0037407 116.8928 243.6041 14.31637679 56454\r\n",
  "PACE                    \r\n1 40022U 14033N   26193.55996944  .00003136  00000+0  19176-3 0  9990\r\n2 40022  98.1247 199.9938 0007553 124.4462 235.7480 15.11056240656867\r\n",
  "FORMOSAT-5              \r\n1 42920U 17049A   26194.25886515  .00000045  00000+0  22354-4 0  9998\r\n2 42920  98.2247 268.9886 0011461   9.7389 350.4026 14.50907523470453\r\n",
  "FORMOSAT 7-3            \r\n1 44343U 19036E   26193.56034507  .00002776  00000+0  14580-3 0  9990\r\n2 44343  24.0004   3.8842 0000410 187.8054 172.2443 15.09982287387083\r\n",
  "FORMOSAT 7-1            \r\n1 44349U 19036L   26194.11688288  .00001376  00000+0  91947-4 0  9997\r\n2 44349  23.9965 217.5703 0001043 113.0070 247.0541 14.96607797388542\r\n",
  "FORMOSAT 7-4            \r\n1 44350U 19036M   26194.27281596  .00001503  00000+0  10282-3 0  9991\r\n2 44350  23.9980 278.6291 0001326 124.2645 235.7981 14.96606289387981\r\n",
  "FORMOSAT 7-2            \r\n1 44351U 19036N   26193.62845069  .00001571  00000+0  10864-3 0  9992\r\n2 44351  23.9995 337.2875 0000787 111.0659 248.9926 14.96603024387403\r\n",
  "FORMOSAT 7-6            \r\n1 44353U 19036Q   26194.09474807  .00001501  00000+0  10261-3 0  9998\r\n2 44353  23.9964 154.9516 0001281  54.6388 305.4232 14.96608093385709\r\n",
  "FORMOSAT 7-5            \r\n1 44358U 19036V   26194.00549183  .00001554  00000+0  10724-3 0  9996\r\n2 44358  23.9983  94.3052 0000464 121.0485 239.0061 14.96586768386220\r\n",
  "FORMOSAT-7R (TRITON)    \r\n1 58017U 23155B   26194.14124078  .00000664  00000+0  72545-4 0  9998\r\n2 58017  97.8352 275.3534 0001718  55.4530 304.6850 14.91191167150096\r\n",
  "NIGHTJAR                \r\n1 60535U 24149BV  26194.15749276  .00002322  00000+0  19565-3 0  9999\r\n2 60535  97.6836 270.4994 0002559 100.7592 259.3919 14.99160551146763\r\n",
  "IRIS-F3                 \r\n1 62619U 25009L   26193.80536603  .00004767  00000+0  18075-3 0  9999\r\n2 62619  97.4046 274.4512 0005408 220.0176 140.0666 15.27347189 82736\r\n",
  "IRIS-F2                 \r\n1 62684U 25009CD  26194.15023695  .00009816  00000+0  36905-3 0  9994\r\n2 62684  97.3888 273.6709 0004256 246.3440 113.7353 15.27351153140422\r\n",
  "FORMOSAT-8A             \r\n1 66666U 25276A   26194.14262068  .00000954  00000+0  79904-4 0  9993\r\n2 66666  97.6547 267.9950 0005315 136.3361 223.8284 15.00748421 33956\r\n",
  "LILIUM-2                \r\n1 66679U 25276P   26194.01300327  .00001558  00000+0  79704-4 0  9993\r\n2 66679  97.4145 266.5394 0004372 278.2856  81.7882 15.18091878 34318\r\n",
  "BLACK KITE-1            \r\n1 66741U 25276CD  26193.77353366  .00004889  00000+0  22383-3 0  9996\r\n2 66741  97.4242 267.1214 0004161 251.3640 108.7144 15.20956519 31619\r\n",
  "T.MICROSAT-1            \r\n1 66766U 25276DE  26193.73444312  .00003354  00000+0  15400-3 0  9999\r\n2 66766  97.4158 267.0652 0002221 102.6088 257.5397 15.21081950 34329\r\n",
  "LILIUM-3                \r\n1 66770U 25276DJ  26194.16951737  .00001342  00000+0  66152-4 0  9992\r\n2 66770  97.4239 267.4988 0002972 131.9372 228.2117 15.19634798 34375\r\n",
  "T.MICROSAT-2            \r\n1 68433U 26067T   26194.43624472  .00003029  00000+0  15383-3 0  9995\r\n2 68433  97.4580 152.4132 0005039 352.0387   8.0766 15.17639459 15915\r\n",
  "PARUS-6U1               \r\n1 68456U 26067AS  26194.36390078  .00003439  00000+0  17353-3 0  9998\r\n2 68456  97.4565 152.3315 0004948 355.3093   4.8094 15.17782590 15905\r\n",
  "BLACK KITE-2            \r\n1 68474U 26067BL  26194.42596360  .00001497  00000+0  15054-3 0  9995\r\n2 68474  97.7563 152.3297 0003189 126.1000 234.0515 14.92694735 15644\r\n",
  "PEARL-1B                \r\n1 68980U 26100A   26194.15654280  .00000965  00000+0  10395-3 0  9993\r\n2 68980  97.7335  90.9968 0008784  66.3075 293.9064 14.90661513 10552\r\n",
  "PEARL-1A                \r\n1 68990U 26100L   26194.13678341  .00000944  00000+0  10092-3 0  9997\r\n2 68990  97.7281  90.9823 0006931  80.3848 279.8153 14.91054823 10563\r\n"
]